[{"OBJECT_NAME":"ONEWEB-0175","OBJECT_ID":"2021-025AH","EPOCH":"2026-03-09T23:29:41.261856","MEAN_MOTION":13.1346906,"ECCENTRICITY":0.0001852,"INCLINATION":87.9042,"RA_OF_ASC_NODE":339.9327,"ARG_OF_PERICENTER":88.4811,"MEAN_ANOMALY":271.653,"EPHEMERIS_TYPE":0,"CLASSIFICATION_TYPE":"U","NORAD_CAT_ID":48073,"ELEMENT_SET_NO":999,"REV_AT_EPOCH":24046,"BSTAR":0.00059140021,"MEAN_MOTION_DOT":2.29e-6,"MEAN_MOTION_DDOT":0},{"OBJECT_NAME":"ECHO 2 DEB [METAL OBJ]","OBJECT_ID":"1964-004C","EPOCH":"2026-03-09T15:08:20.746752","MEAN_MOTION":13.26274829,"ECCENTRICITY":0.0170959,"INCLINATION":81.4674,"RA_OF_ASC_NODE":136.5189,"ARG_OF_PERICENTER":7.821,"MEAN_ANOMALY":352.5517,"EPHEMERIS_TYPE":0,"CLASSIFICATION_TYPE":"U","NORAD_CAT_ID":742,"ELEMENT_SET_NO":999,"REV_AT_EPOCH":416,"BSTAR":0.00012585,"MEAN_MOTION_DOT":7.1e-7,"MEAN_MOTION_DDOT":0}]
